ONEWEB-0584             
1 54651U 22166K   23075.58334491  .00000015  00000+0  00000+0 0  9996
2 54651  87.5246 121.1593 0007282 271.4759 106.2362 13.69325035 14889
ONEWEB-0585             
1 54652U 22166L   23075.58334491  .00000015  00000+0  00000+0 0  9997
2 54652  87.5145 121.1619 0006699 278.6052 185.7551 13.67105957 14882
ONEWEB-0586             
1 54653U 22166M   23075.58334491  .00000015  00000+0  00000+0 0  9998
2 54653  87.5142 121.1896 0005523 302.0682 246.2290 13.69116210 14893
ONEWEB-0587             
1 54654U 22166N   23074.91667824  .00023507  00000+0  21583-1 0  9996
2 54654  87.4605 121.2988 0008980 270.8996 193.2407 13.82636847  1301
ONEWEB-0589             
1 54655U 22166P   23075.58334491  .00000015  00000+0  00000+0 0  9990
2 54655  87.5233 121.1490 0010969 287.5243 357.1951 13.71335850 14900
ONEWEB-0590             
1 54656U 22166Q   23075.58334491  .00000015  00000+0  00000+0 0  9991
2 54656  87.5142 121.1525 0011606 281.4156 327.7712 13.65401083 14895
ONEWEB-0591             
1 54657U 22166R   23075.58334491  .00000015  00000+0  00000+0 0  9992
2 54657  87.5386 121.1558 0010487 286.4359 216.9221 13.74008349 14902
ONEWEB-0592             
1 54658U 22166S   23075.25001157 -.00667334  00000+0 -81478+0 0  9990
2 54658  87.4496 121.3608 0006333 294.9796 344.7843 13.68847488 14735
ONEWEB-0593             
1 54659U 22166T   23075.58334491  .00000015  00000+0  00000+0 0  9994
2 54659  87.5322 121.1081 0008210 277.4139 149.0326 13.71941606 14903
ONEWEB-0594             
1 54660U 22166U   23075.58334491  .00000016  00000+0  00000+0 0  9997
2 54660  87.4969 121.0272 0011139 279.6548 171.1727 13.73615805 14906
ONEWEB-0595             
1 54661U 22166V   23075.58334491  .00000015  00000+0  00000+0 0  9997
2 54661  87.5162 121.1513 0007116 273.6479 234.0693 13.66311048 14892
ONEWEB-0596             
1 54662U 22166W   23075.58334491  .00000015  00000+0  00000+0 0  9998
2 54662  87.5287 121.1636 0006077 272.2221 143.7624 13.70040155 14895
ONEWEB-0597             
1 54663U 22166X   23075.58334491  .00000015  00000+0  00000+0 0  9999
2 54663  87.5336 121.1519 0009685 285.2834 321.2743 13.70267634 14903
ONEWEB-0600             
1 54664U 22166Y   23075.58334491  .00000015  00000+0  00000+0 0  9990
2 54664  87.5057 121.1445 0009917 282.3663 208.1970 13.64020937 14886
ONEWEB-0601             
1 54665U 22166Z   23075.58334491 -.01113935  00000+0 -98170+0 0  9995
2 54665  87.4896 120.6271 0009734 277.9694 261.5918 13.88912790 14944
ONEWEB-0602             
1 54666U 22166AA  23075.58334491  .00000015  00000+0  00000+0 0  9992
2 54666  87.5238 121.0435 0008857 276.1113 222.7463 13.72047547 14907
ONEWEB-0603             
1 54667U 22166AB  23074.91667824 -.00615737  00000+0 -66992+0 0  9995
2 54667  87.4191 121.6965 0006435 305.2649 190.3369 13.75600260  1302
ONEWEB-0604             
1 54668U 22166AC  23074.91667824 -.00647683  00000+0 -75473+0 0  9995
2 54668  87.4349 121.5029 0005716 296.3435 318.8963 13.71602813  1301
ONEWEB-0605             
1 54669U 22166AD  23075.25001157 -.00879270  00000+0 -86018+0 0  9991
2 54669  87.4309 121.7012 0007142 299.6289  69.0892 13.82534642 14799
ONEWEB-0606             
1 54670U 22166AE  23075.58334491 -.00591362  00000+0 -63788+0 0  9991
2 54670  87.4193 120.9880 0005911 303.0918 271.4280 13.76008119 14818
ONEWEB-0607             
1 54671U 22166AF  23074.91667824 -.00793440  00000+0 -74536+0 0  9991
2 54671  87.4396 121.6069 0004701 286.4947 345.2699 13.84599244  1300
ONEWEB-0608             
1 54672U 22166AG  23074.91667824 -.00833100  00000+0 -81154+0 0  9994
2 54672  87.4381 121.7504 0010085 288.3180 106.5954 13.82596386  1306
ONEWEB-0610             
1 54673U 22166AH  23074.91667824 -.00658459  00000+0 -76673+0 0  9997
2 54673  87.4465 121.6537 0009407 274.0878 305.3824 13.71683975  1301
ONEWEB-0611             
1 54674U 22166AJ  23075.58334491 -.00672458  00000+0 -79965+0 0  9995
2 54674  87.4653 121.4619 0010177 274.8909  63.6356 13.70467584 14795
ONEWEB-0612             
1 54675U 22166AK  23075.58334491 -.00667806  00000+0 -80598+0 0  9991
2 54675  87.4787 121.3238 0005688 305.3248 103.4496 13.69557784 14773
ONEWEB-0615             
1 54676U 22166AL  23074.91667824 -.00672055  00000+0 -79286+0 0  9991
2 54676  87.4459 121.6271 0009150 277.4536  92.2636 13.70952516  1307
ONEWEB-0655             
1 54677U 22166AM  23074.91667824 -.00667266  00000+0 -79055+0 0  9994
2 54677  87.4398 121.6204 0009469 281.2081 255.8432 13.70671824  1308
ONEWEB-0659             
1 54678U 22166AN  23075.58334491  .00000015  00000+0  00000+0 0  9995
2 54678  87.5311 121.1669 0007733 277.7749 171.1965 13.69766582 14891
ONEWEB-0685             
1 54679U 22166AP  23075.25001157 -.00554894  00000+0 -68840+0 0  9997
2 54679  87.4211 121.5629 0003665 291.4091  39.4663 13.67809855 14714
ONEWEB-0712             
1 54680U 22166AQ  23075.17146213  .00005502  00000+0  81786-3 0  9996
2 54680  86.5615 116.0445 0009988 261.7708  98.2378 14.74799020 15154
ONEWEB-0714             
1 54681U 22166AR  23075.58334491  .00000015  00000+0  00000+0 0  9999
2 54681  87.5273 121.1587 0009716 288.6111 296.4454 13.67803798 14903
ONEWEB-0532             
1 55140U 23004A   23075.47696804  .00001234  00000+0  22239-3 0  9995
2 55140  86.6197 257.5975 0011970 357.7257   2.3899 14.65704837  9812
ONEWEB-0533             
1 55141U 23004B   23075.47787997  .00004406  00000+0  80313-3 0  9991
2 55141  86.6201 257.5978 0013933   5.7163 354.4207 14.65791704  9812
ONEWEB-0541             
1 55142U 23004C   23075.58334491 -.01022456  00000+0 -49133+0 0  9990
2 55142  87.1029 259.3925 0011044   1.3701  35.6251 14.22259706  9732
ONEWEB-0543             
1 55143U 23004D   23075.23329817  .00001486  00000+0  26865-3 0  9997
2 55143  86.6205 257.7568 0010206   9.6984 350.4425 14.65719499  9773
ONEWEB-0544             
1 55144U 23004E   23075.23707622  .00005540  00000+0  10120-2 0  9993
2 55144  86.6227 257.6520 0013716   6.9218 353.2182 14.65733646  9786
ONEWEB-0560             
1 55145U 23004F   23074.89281542  .00001498  00000+0  27064-3 0  9997
2 55145  86.6242 257.8006 0014630   8.4703 351.6754 14.65719728  9734
ONEWEB-0565             
1 55146U 23004G   23074.93084127  .00001456  00000+0  26181-3 0  9996
2 55146  86.6225 257.7274 0014786  10.9418 349.2114 14.65907746  9748
ONEWEB-0567             
1 55147U 23004H   23075.48837959  .00002259  00000+0  41041-3 0  9991
2 55147  86.6223 257.5095 0014387   9.5503 350.5981 14.65711708  9829
ONEWEB-0569             
1 55148U 23004J   23075.46561072  .00001572  00000+0  28457-3 0  9993
2 55148  86.6204 257.5827 0012539   1.8451 358.2806 14.65706753  9810
ONEWEB-0570             
1 55149U 23004K   23075.45987267  .00001214  00000+0  21782-3 0  9998
2 55149  86.6200 257.5771 0012412   7.0029 353.1356 14.65887822  9815
ONEWEB-0571             
1 55150U 23004L   23074.88528624  .00001361  00000+0  24555-3 0  9998
2 55150  86.6246 257.7957 0014831  12.3760 347.7815 14.65716451  9732
ONEWEB-0572             
1 55151U 23004M   23074.92874087  .00001559  00000+0  28215-3 0  9997
2 55151  86.6212 257.8313 0012418   7.3464 352.7929 14.65700392  9736
ONEWEB-0573             
1 55152U 23004N   23075.46669640  .00000962  00000+0  17240-3 0  9998
2 55152  86.6212 257.5969 0012724   4.4845 355.6480 14.65706147  9819
ONEWEB-0588             
1 55153U 23004P   23074.89774091  .00001592  00000+0  28825-3 0  9993
2 55153  86.6208 257.9042 0008738  14.5441 345.6022 14.65708880  9722
ONEWEB-0598             
1 55154U 23004Q   23075.25001157 -.00938676  00000+0 -58130+0 0  9993
2 55154  87.1910 260.0175 0010851  19.0739 224.5048 14.08304553  9651
ONEWEB-0599             
1 55155U 23004R   23074.92392468  .00002550  00000+0  46414-3 0  9992
2 55155  86.6220 257.8286 0012732   6.6544 353.4836 14.65695206  9730
ONEWEB-0614             
1 55156U 23004S   23075.25001157 -.00791831  00000+0 -52681+0 0  9990
2 55156  87.1455 259.9975 0012333  28.4903  20.2280 14.04303401  9641
ONEWEB-0616             
1 55157U 23004T   23074.92414145  .00001153  00000+0  20760-3 0  9995
2 55157  86.6194 257.8074 0011930   4.7520 355.3804 14.65702630  9735
ONEWEB-0617             
1 55158U 23004U   23075.58334491 -.01182568  00000+0 -74012+0 0  9992
2 55158  87.1818 259.9557 0008003 354.3805  74.5856 14.07955332  9698
ONEWEB-0618             
1 55159U 23004V   23075.49298480  .00001492  00000+0  26979-3 0  9996
2 55159  86.6219 257.5108 0011150  10.6910 349.4538 14.65709764  9826
ONEWEB-0619             
1 55160U 23004W   23075.22833538  .00001466  00000+0  26474-3 0  9999
2 55160  86.6216 257.6344 0013348   5.5215 354.6143 14.65756179  9787
ONEWEB-0620             
1 55161U 23004X   23075.25001157 -.01104767  00000+0 -79162+0 0  9996
2 55161  87.1524 259.9576 0008293  13.5213  43.9654 14.00740304  9640
ONEWEB-0621             
1 55162U 23004Y   23075.58334491  .00000015  00000+0  00000+0 0  9996
2 55162  87.5043 261.8708 0008938   2.1702 181.5115 13.59497669  9538
ONEWEB-0622             
1 55163U 23004Z   23075.58334491 -.01001872  00000+0 -62285+0 0  9995
2 55163  87.1925 259.9660 0009032  33.4513 355.6629 14.08308576  9696
ONEWEB-0623             
1 55164U 23004AA  23075.47279863  .00001207  00000+0  21746-3 0  9995
2 55164  86.6223 257.4866 0015180   8.0428 352.1025 14.65688904  9823
ONEWEB-0624             
1 55165U 23004AB  23075.04877183  .00001016  00000+0  18136-3 0  9995
2 55165  86.6249 257.6599 0015376  13.9763 346.1873 14.65900925  9768
ONEWEB-0625             
1 55166U 23004AC  23075.05354543  .00001230  00000+0  22171-3 0  9999
2 55166  86.6199 257.7446 0012203   2.9106 357.2176 14.65691980  9756
ONEWEB-0626             
1 55167U 23004AD  23074.91005007  .00001328  00000+0  23946-3 0  9991
2 55167  86.6233 257.6962 0015004  17.6698 342.5035 14.65702802  9745
